start=new Date('2023-02-14T00:00:00.000Z').valueOf();
sats=[{"FILE":"3789366","SITE":"AFETR","RCS_SIZE":"LARGE","MEAN_MOTION":"15.06402042","MEAN_MOTION_DDOT":"0.0000000000000","OBJECT_TYPE":"PAYLOAD","LAUNCH_DATE":"2021-04-07","ECCENTRICITY":"0.00017860","BSTAR":"0.00011461000000","RA_OF_ASC_NODE":"86.1346","OBJECT_NAME":"STARLINK-2048","MEAN_MOTION_DOT":"0.00001426","ELEMENT_SET_NO":"999","TLE_LINE2":"2 48092  53.0528  86.1346 0001786  84.9744 275.1449 15.06402042104601","PERIOD":"95.592","ARG_OF_PERICENTER":"84.9744","PERIAPSIS":"545.970","MEAN_ELEMENT_THEORY":"SGP4","CLASSIFICATION_TYPE":"U","TIME_SYSTEM":"UTC","COUNTRY_CODE":"US","DECAY_DATE":null,"SEMIMAJOR_AXIS":"6925.342","CENTER_NAME":"EARTH","GP_ID":"225322957","TLE_LINE1":"1 48092U 21027A   23044.38677496  .00001426  00000-0  11461-3 0  9997","MEAN_ANOMALY":"275.1449","EPHEMERIS_TYPE":"0","EPOCH":"2023-02-13T09:16:57.356544","REV_AT_EPOCH":"10460","APOAPSIS":"548.444","NORAD_CAT_ID":"48092","REF_FRAME":"TEME","OBJECT_ID":"2021-027A","INCLINATION":"53.0528"},{"OBJECT_TYPE":"PAYLOAD","LAUNCH_DATE":"2021-04-07","MEAN_MOTION":"15.06420464","RCS_SIZE":"LARGE","MEAN_MOTION_DDOT":"0.0000000000000","SITE":"AFETR","FILE":"3789513","RA_OF_ASC_NODE":"150.3331","BSTAR":"0.00217620000000","ECCENTRICITY":"0.00007850","PERIOD":"95.591","ARG_OF_PERICENTER":"80.6873","TLE_LINE2":"2 48093  53.0507 150.3331 0000785  80.6873 279.4205 15.06420464103324","MEAN_MOTION_DOT":"0.00032300","ELEMENT_SET_NO":"999","OBJECT_NAME":"STARLINK-2404","DECAY_DATE":null,"COUNTRY_CODE":"US","TIME_SYSTEM":"UTC","MEAN_ELEMENT_THEORY":"SGP4","PERIAPSIS":"546.607","CLASSIFICATION_TYPE":"U","EPHEMERIS_TYPE":"0","MEAN_ANOMALY":"279.4205","GP_ID":"225331314","TLE_LINE1":"1 48093U 21027B   23044.54848546  .00032300  00000-0  21762-2 0  9991","SEMIMAJOR_AXIS":"6925.286","CENTER_NAME":"EARTH","REF_FRAME":"TEME","NORAD_CAT_ID":"48093","APOAPSIS":"547.694","REV_AT_EPOCH":"10332","EPOCH":"2023-02-13T13:09:49.143744","OBJECT_ID":"2021-027B","INCLINATION":"53.0507"},{"EPHEMERIS_TYPE":"0","MEAN_ANOMALY":"281.8032","TLE_LINE1":"1 48094U 21027C   23044.69866531 -.00001276  00000-0 -66776-4 0  9998","GP_ID":"225331308","CENTER_NAME":"EARTH","SEMIMAJOR_AXIS":"6925.354","INCLINATION":"53.0517","OBJECT_ID":"2021-027C","REF_FRAME":"TEME","NORAD_CAT_ID":"48094","REV_AT_EPOCH":"10321","APOAPSIS":"547.859","EPOCH":"2023-02-13T16:46:04.682784","RA_OF_ASC_NODE":"159.4541","BSTAR":"-0.00006677600000","ECCENTRICITY":"0.00009240","LAUNCH_DATE":"2021-04-07","OBJECT_TYPE":"PAYLOAD","RCS_SIZE":"LARGE","MEAN_MOTION":"15.06398284","MEAN_MOTION_DDOT":"0.0000000000000","SITE":"AFETR","FILE":"3789513","DECAY_DATE":null,"COUNTRY_CODE":"US","TIME_SYSTEM":"UTC","CLASSIFICATION_TYPE":"U","MEAN_ELEMENT_THEORY":"SGP4","PERIAPSIS":"546.579","ARG_OF_PERICENTER":"78.3061","PERIOD":"95.592","TLE_LINE2":"2 48094  53.0517 159.4541 0000924  78.3061 281.8032 15.06398284103214","MEAN_MOTION_DOT":"-0.00001276","ELEMENT_SET_NO":"999","OBJECT_NAME":"STARLINK-2412"},{"EPHEMERIS_TYPE":"0","MEAN_ANOMALY":"281.5481","TLE_LINE1":"1 48095U 21027D   23044.57334191  .00030221  00000-0  20390-2 0  9998","GP_ID":"225323207","SEMIMAJOR_AXIS":"6925.344","CENTER_NAME":"EARTH","REF_FRAME":"TEME","NORAD_CAT_ID":"48095","APOAPSIS":"547.905","REV_AT_EPOCH":"10360","EPOCH":"2023-02-13T13:45:36.741024","INCLINATION":"53.0524","OBJECT_ID":"2021-027D","LAUNCH_DATE":"2021-04-07","OBJECT_TYPE":"PAYLOAD","MEAN_MOTION":"15.06401417","RCS_SIZE":"MEDIUM","MEAN_MOTION_DDOT":"0.0000000000000","FILE":"3789366","SITE":"AFETR","RA_OF_ASC_NODE":"160.0124","BSTAR":"0.00203900000000","ECCENTRICITY":"0.00010050","ARG_OF_PERICENTER":"78.5621","PERIOD":"95.592","TLE_LINE2":"2 48095  53.0524 160.0124 0001005  78.5621 281.5481 15.06401417103604","ELEMENT_SET_NO":"999","MEAN_MOTION_DOT":"0.00030221","OBJECT_NAME":"STARLINK-2414","DECAY_DATE":null,"TIME_SYSTEM":"UTC","COUNTRY_CODE":"US","CLASSIFICATION_TYPE":"U","PERIAPSIS":"546.513","MEAN_ELEMENT_THEORY":"SGP4"},{"REF_FRAME":"TEME","NORAD_CAT_ID":"48096","REV_AT_EPOCH":"10359","APOAPSIS":"547.821","EPOCH":"2023-02-13T14:43:59.703744","OBJECT_ID":"2021-027E","INCLINATION":"53.0549","EPHEMERIS_TYPE":"0","MEAN_ANOMALY":"299.7739","TLE_LINE1":"1 48096U 21027E   23044.61388546  .00002420  00000-0  18129-3 0  9995","GP_ID":"225323457","SEMIMAJOR_AXIS":"6925.338","CENTER_NAME":"EARTH","ARG_OF_PERICENTER":"60.3339","PERIOD":"95.592","TLE_LINE2":"2 48096  53.0549 159.8337 0000893  60.3339 299.7739 15.06403482103592","ELEMENT_SET_NO":"999","MEAN_MOTION_DOT":"0.00002420","OBJECT_NAME":"STARLINK-2417","DECAY_DATE":null,"COUNTRY_CODE":"US","TIME_SYSTEM":"UTC","CLASSIFICATION_TYPE":"U","MEAN_ELEMENT_THEORY":"SGP4","PERIAPSIS":"546.584","OBJECT_TYPE":"PAYLOAD","LAUNCH_DATE":"2021-04-07","MEAN_MOTION":"15.06403482","RCS_SIZE":"LARGE","MEAN_MOTION_DDOT":"0.0000000000000","FILE":"3789366","SITE":"AFETR","RA_OF_ASC_NODE":"159.8337","BSTAR":"0.00018129000000","ECCENTRICITY":"0.00008930"},{"GP_ID":"225335707","TLE_LINE1":"1 48097U 21027F   23044.52727116  .00009128  00000-0  63075-3 0  9998","CENTER_NAME":"EARTH","SEMIMAJOR_AXIS":"6925.319","EPHEMERIS_TYPE":"0","MEAN_ANOMALY":"270.3097","APOAPSIS":"547.850","REV_AT_EPOCH":"10346","EPOCH":"2023-02-13T12:39:16.228224","REF_FRAME":"TEME","NORAD_CAT_ID":"48097","INCLINATION":"53.0514","OBJECT_ID":"2021-027F","FILE":"3789674","SITE":"AFETR","LAUNCH_DATE":"2021-04-07","OBJECT_TYPE":"PAYLOAD","MEAN_MOTION_DDOT":"0.0000000000000","RCS_SIZE":"LARGE","MEAN_MOTION":"15.06409636","BSTAR":"0.00063075000000","ECCENTRICITY":"0.00009620","RA_OF_ASC_NODE":"140.2225","MEAN_MOTION_DOT":"0.00009128","ELEMENT_SET_NO":"999","OBJECT_NAME":"STARLINK-2418","PERIOD":"95.592","ARG_OF_PERICENTER":"89.8002","TLE_LINE2":"2 48097  53.0514 140.2225 0000962  89.8002 270.3097 15.06409636103460","TIME_SYSTEM":"UTC","COUNTRY_CODE":"US","PERIAPSIS":"546.518","MEAN_ELEMENT_THEORY":"SGP4","CLASSIFICATION_TYPE":"U","DECAY_DATE":null},{"CENTER_NAME":"EARTH","SEMIMAJOR_AXIS":"6925.291","TLE_LINE1":"1 48098U 21027G   23044.57058057  .00030213  00000-0  20375-2 0  9999","GP_ID":"225324437","MEAN_ANOMALY":"280.8355","EPHEMERIS_TYPE":"0","EPOCH":"2023-02-13T13:41:38.161248","REV_AT_EPOCH":"10372","APOAPSIS":"547.905","NORAD_CAT_ID":"48098","REF_FRAME":"TEME","OBJECT_ID":"2021-027G","INCLINATION":"53.0529","FILE":"3789366","SITE":"AFETR","RCS_SIZE":"LARGE","MEAN_MOTION_DDOT":"0.0000000000000","MEAN_MOTION":"15.06418788","OBJECT_TYPE":"PAYLOAD","LAUNCH_DATE":"2021-04-07","ECCENTRICITY":"0.00010820","BSTAR":"0.00203750000000","RA_OF_ASC_NODE":"150.0256","OBJECT_NAME":"STARLINK-2421","ELEMENT_SET_NO":"999","MEAN_MOTION_DOT":"0.00030213","TLE_LINE2":"2 48098  53.0529 150.0256 0001082  79.2756 280.8355 15.06418788103723","ARG_OF_PERICENTER":"79.2756","PERIOD":"95.591","CLASSIFICATION_TYPE":"U","PERIAPSIS":"546.407","MEAN_ELEMENT_THEORY":"SGP4","COUNTRY_CODE":"US","TIME_SYSTEM":"UTC","DECAY_DATE":null},{"RA_OF_ASC_NODE":"159.1941","BSTAR":"0.00277800000000","ECCENTRICITY":"0.00011740","LAUNCH_DATE":"2021-04-07","OBJECT_TYPE":"PAYLOAD","MEAN_MOTION":"15.06431236","RCS_SIZE":"LARGE","MEAN_MOTION_DDOT":"0.0000000000000","FILE":"3789513","SITE":"AFETR","DECAY_DATE":null,"COUNTRY_CODE":"US","TIME_SYSTEM":"UTC","CLASSIFICATION_TYPE":"U","MEAN_ELEMENT_THEORY":"SGP4","PERIAPSIS":"546.305","ARG_OF_PERICENTER":"98.1306","PERIOD":"95.590","TLE_LINE2":"2 48099  53.0501 159.1941 0001174  98.1306 261.9816 15.06431236103217","MEAN_MOTION_DOT":"0.00041375","ELEMENT_SET_NO":"999","OBJECT_NAME":"STARLINK-2428","EPHEMERIS_TYPE":"0","MEAN_ANOMALY":"261.9816","TLE_LINE1":"1 48099U 21027H   23044.75763780  .00041375  00000-0  27780-2 0  9994","GP_ID":"225331548","CENTER_NAME":"EARTH","SEMIMAJOR_AXIS":"6925.253","INCLINATION":"53.0501","OBJECT_ID":"2021-027H","REF_FRAME":"TEME","NORAD_CAT_ID":"48099","APOAPSIS":"547.931","REV_AT_EPOCH":"10321","EPOCH":"2023-02-13T18:10:59.905920"},{"OBJECT_TYPE":"PAYLOAD","LAUNCH_DATE":"2021-04-07","MEAN_MOTION":"15.06406575","RCS_SIZE":"LARGE","MEAN_MOTION_DDOT":"0.0000000000000","SITE":"AFETR","FILE":"3789366","RA_OF_ASC_NODE":"140.2573","BSTAR":"0.00007729800000","ECCENTRICITY":"0.00013700","ARG_OF_PERICENTER":"83.7854","PERIOD":"95.592","TLE_LINE2":"2 48100  53.0530 140.2573 0001370  83.7854 276.3291 15.06406575103866","MEAN_MOTION_DOT":"0.00000870","ELEMENT_SET_NO":"999","OBJECT_NAME":"STARLINK-2430","DECAY_DATE":null,"TIME_SYSTEM":"UTC","COUNTRY_CODE":"US","CLASSIFICATION_TYPE":"U","MEAN_ELEMENT_THEORY":"SGP4","PERIAPSIS":"546.245","EPHEMERIS_TYPE":"0","MEAN_ANOMALY":"276.3291","TLE_LINE1":"1 48100U 21027J   23044.51989753  .00000870  00000-0  77298-4 0  9997","GP_ID":"225322958","CENTER_NAME":"EARTH","SEMIMAJOR_AXIS":"6925.328","REF_FRAME":"TEME","NORAD_CAT_ID":"48100","REV_AT_EPOCH":"10386","APOAPSIS":"548.142","EPOCH":"2023-02-13T12:28:39.146592","INCLINATION":"53.0530","OBJECT_ID":"2021-027J"},{"SEMIMAJOR_AXIS":"6925.318","CENTER_NAME":"EARTH","TLE_LINE1":"1 48101U 21027K   23043.90619257  .00045441  00000-0  30491-2 0  9994","GP_ID":"225324209","MEAN_ANOMALY":"277.7816","EPHEMERIS_TYPE":"0","OBJECT_ID":"2021-027K","INCLINATION":"53.0515","EPOCH":"2023-02-12T21:44:55.038048","APOAPSIS":"547.913","REV_AT_EPOCH":"10363","NORAD_CAT_ID":"48101","REF_FRAME":"TEME","ECCENTRICITY":"0.00010540","BSTAR":"0.00304910000000","RA_OF_ASC_NODE":"153.0141","SITE":"AFETR","FILE":"3789366","MEAN_MOTION_DDOT":"0.0000000000000","RCS_SIZE":"LARGE","MEAN_MOTION":"15.06409844","OBJECT_TYPE":"PAYLOAD","LAUNCH_DATE":"2021-04-07","CLASSIFICATION_TYPE":"U","MEAN_ELEMENT_THEORY":"SGP4","PERIAPSIS":"546.453","COUNTRY_CODE":"US","TIME_SYSTEM":"UTC","DECAY_DATE":null,"OBJECT_NAME":"STARLINK-2436","ELEMENT_SET_NO":"999","MEAN_MOTION_DOT":"0.00045441","TLE_LINE2":"2 48101  53.0515 153.0141 0001054  82.3292 277.7816 15.06409844103638","ARG_OF_PERICENTER":"82.3292","PERIOD":"95.592"}];
